{"type": "FeatureCollection", "features": [ {"type": "Feature", "properties": {"norad_id": 43108, "name": "BEIDOU-3 M8 (C28)", "group": "beidou", "lat": -45.04011624572193, "lon": -97.08128647438144, "alt_km": 21521.264770375117, "timestamp": "2025-12-19T20:43:00.350808+00:00", "meta": {"OBJECT_NAME": "BEIDOU-3 M8 (C28)", "OBJECT_ID": "2018-003B", "EPOCH": "2025-12-17T06:26:34.084320", "MEAN_MOTION": 1.8623095, "ECCENTRICITY": 0.00046498, "INCLINATION": 54.4854, "RA_OF_ASC_NODE": 308.6394, "ARG_OF_PERICENTER": 276.4476, "MEAN_ANOMALY": 83.4857, "EPHEMERIS_TYPE": 0, "CLASSIFICATION_TYPE": "U", "NORAD_CAT_ID": 43108, "ELEMENT_SET_NO": 999, "REV_AT_EPOCH": 5397, "BSTAR": 0, "MEAN_MOTION_DOT": -9.2e-07, "MEAN_MOTION_DDOT": 0}, "tle": {"line1": "1 43108U 18003B   25351.26845005 -.00000092  00000+0  00000+0 0  9994", "line2": "2 43108  54.4854 308.6394 0004649 276.4476  83.4857  1.86230950 53973"}}, "geometry": {"type": "Point", "coordinates": [-97.08128647438144, -45.04011624572193]}}, {"type": "Feature", "properties": {"norad_id": 43207, "name": "BEIDOU-3 M4 (C22)", "group": "beidou", "lat": 2.762364426636861, "lon": 70.91402796499167, "alt_km": 21516.358355929176, "timestamp": "2025-12-19T20:43:00.350819+00:00", "meta": {"OBJECT_NAME": "BEIDOU-3 M4 (C22)", "OBJECT_ID": "2018-018A", "EPOCH": "2025-12-18T05:56:14.155584", "MEAN_MOTION": 1.86231297, "ECCENTRICITY": 0.0004163, "INCLINATION": 56.4903, "RA_OF_ASC_NODE": 69.1221, "ARG_OF_PERICENTER": 6.0826, "MEAN_ANOMALY": 353.9513, "EPHEMERIS_TYPE": 0, "CLASSIFICATION_TYPE": "U", "NORAD_CAT_ID": 43207, "ELEMENT_SET_NO": 999, "REV_AT_EPOCH": 5337, "BSTAR": 0, "MEAN_MOTION_DOT": -6.5e-07, "MEAN_MOTION_DDOT": 0}, "tle": {"line1": "1 43207U 18018A   25352.24738606 -.00000065  00000+0  00000+0 0  9997", "line2": "2 43207  56.4903  69.1221 0004163   6.0826 353.9513  1.86231297 53378"}}, "geometry": {"type": "Point", "coordinates": [70.91402796499167, 2.762364426636861]}}, {"type": "Feature", "properties": {"norad_id": 43208, "name": "BEIDOU-3 M3 (C21)", "group": "beidou", "lat": -33.41711972496147, "lon": 43.210631180866926, "alt_km": 21513.245242971443, "timestamp": "2025-12-19T20:43:00.350831+00:00", "meta": {"OBJECT_NAME": "BEIDOU-3 M3 (C21)", "OBJECT_ID": "2018-018B", "EPOCH": "2025-12-18T07:32:00.641184", "MEAN_MOTION": 1.86231501, "ECCENTRICITY": 0.00068177, "INCLINATION": 56.4898, "RA_OF_ASC_NODE": 69.124, "ARG_OF_PERICENTER": 315.0049, "MEAN_ANOMALY": 44.9692, "EPHEMERIS_TYPE": 0, "CLASSIFICATION_TYPE": "U", "NORAD_CAT_ID": 43208, "ELEMENT_SET_NO": 999, "REV_AT_EPOCH": 5337, "BSTAR": 0, "MEAN_MOTION_DOT": -6.4e-07, "MEAN_MOTION_DDOT": 0}, "tle": {"line1": "1 43208U 18018B   25352.31389631 -.00000064  00000+0  00000+0 0  9995", "line2": "2 43208  56.4898  69.1240 0006817 315.0049  44.9692  1.86231501 53374"}}, "geometry": {"type": "Point", "coordinates": [43.210631180866926, -33.41711972496147]}}, {"type": "Feature", "properties": {"norad_id": 43245, "name": "BEIDOU-3 M9 (C29)", "group": "beidou", "lat": 5.068283715075478, "lon": 122.55019870106327, "alt_km": 21529.669659176918, "timestamp": "2025-12-19T20:43:00.350842+00:00", "meta": {"OBJECT_NAME": "BEIDOU-3 M9 (C29)", "OBJECT_ID": "2018-029A", "EPOCH": "2025-12-17T23:50:09.526848", "MEAN_MOTION": 1.86228477, "ECCENTRICITY": 0.00015623, "INCLINATION": 54.3607, "RA_OF_ASC_NODE": 306.2844, "ARG_OF_PERICENTER": 287.552, "MEAN_ANOMALY": 72.4185, "EPHEMERIS_TYPE": 0, "CLASSIFICATION_TYPE": "U", "NORAD_CAT_ID": 43245, "ELEMENT_SET_NO": 999, "REV_AT_EPOCH": 5252, "BSTAR": 0, "MEAN_MOTION_DOT": -8.6e-07, "MEAN_MOTION_DDOT": 0}, "tle": {"line1": "1 43245U 18029A   25351.99316582 -.00000086  00000+0  00000+0 0  9990", "line2": "2 43245  54.3607 306.2844 0001562 287.5520  72.4185  1.86228477 52521"}}, "geometry": {"type": "Point", "coordinates": [122.55019870106327, 5.068283715075478]}}, {"type": "Feature", "properties": {"norad_id": 43246, "name": "BEIDOU-3 M10 (C30)", "group": "beidou", "lat": -29.424701680849306, "lon": 150.07056724031227, "alt_km": 21541.731963985232, "timestamp": "2025-12-19T20:43:00.350854+00:00", "meta": {"OBJECT_NAME": "BEIDOU-3 M10 (C30)", "OBJECT_ID": "2018-029B", "EPOCH": "2025-12-17T09:23:40.675200", "MEAN_MOTION": 1.8622912, "ECCENTRICITY": 0.00041993, "INCLINATION": 54.3586, "RA_OF_ASC_NODE": 306.3321, "ARG_OF_PERICENTER": 3.5987, "MEAN_ANOMALY": 356.3911, "EPHEMERIS_TYPE": 0, "CLASSIFICATION_TYPE": "U", "NORAD_CAT_ID": 43246, "ELEMENT_SET_NO": 999, "REV_AT_EPOCH": 5249, "BSTAR": 0, "MEAN_MOTION_DOT": -9e-07, "MEAN_MOTION_DDOT": 0}, "tle": {"line1": "1 43246U 18029B   25351.39144300 -.00000090  00000+0  00000+0 0  9997", "line2": "2 43246  54.3586 306.3321 0004199   3.5987 356.3911  1.86229120 52494"}}, "geometry": {"type": "Point", "coordinates": [150.07056724031227, -29.424701680849306]}}, {"type": "Feature", "properties": {"norad_id": 43539, "name": "BEIDOU-2 IGSO-7 (C16)", "group": "beidou", "lat": -11.186813357399867, "lon": 156.66956163743285, "alt_km": 35929.848287635774, "timestamp": "2025-12-19T20:43:00.350872+00:00", "meta": {"OBJECT_NAME": "BEIDOU-2 IGSO-7 (C16)", "OBJECT_ID": "2018-057A", "EPOCH": "2025-12-15T07:47:07.120608", "MEAN_MOTION": 1.00256546, "ECCENTRICITY": 0.00926218, "INCLINATION": 55.1766, "RA_OF_ASC_NODE": 164.6485, "ARG_OF_PERICENTER": 235.2644, "MEAN_ANOMALY": 271.8458, "EPHEMERIS_TYPE": 0, "CLASSIFICATION_TYPE": "U", "NORAD_CAT_ID": 43539, "ELEMENT_SET_NO": 999, "REV_AT_EPOCH": 2728, "BSTAR": 0, "MEAN_MOTION_DOT": -2.3e-07, "MEAN_MOTION_DDOT": 0}, "tle": {"line1": "1 43539U 18057A   25349.32438797 -.00000023  00000+0  00000+0 0  9995", "line2": "2 43539  55.1766 164.6485 0092621 235.2644 271.8458  1.00256546 27289"}}, "geometry": {"type": "Point", "coordinates": [156.66956163743285, -11.186813357399867]}}, {"type": "Feature", "properties": {"norad_id": 43581, "name": "BEIDOU-3 M5 (C23)", "group": "beidou", "lat": 47.98592444944742, "lon": -117.99510704364089, "alt_km": 21520.507097140264, "timestamp": "2025-12-19T20:43:00.350885+00:00", "meta": {"OBJECT_NAME": "BEIDOU-3 M5 (C23)", "OBJECT_ID": "2018-062A", "EPOCH": "2025-12-17T01:53:59.361792", "MEAN_MOTION": 1.86228923, "ECCENTRICITY": 0.00020674, "INCLINATION": 54.0895, "RA_OF_ASC_NODE": 188.4955, "ARG_OF_PERICENTER": 356.8892, "MEAN_ANOMALY": 3.1782, "EPHEMERIS_TYPE": 0, "CLASSIFICATION_TYPE": "U", "NORAD_CAT_ID": 43581, "ELEMENT_SET_NO": 999, "REV_AT_EPOCH": 5024, "BSTAR": 0, "MEAN_MOTION_DOT": 1.14e-06, "MEAN_MOTION_DDOT": 0}, "tle": {"line1": "1 43581U 18062A   25351.07915928  .00000114  00000+0  00000+0 0  9999", "line2": "2 43581  54.0895 188.4955 0002067 356.8892   3.1782  1.86228923 50243"}}, "geometry": {"type": "Point", "coordinates": [-117.99510704364089, 47.98592444944742]}}, {"type": "Feature", "properties": {"norad_id": 43582, "name": "BEIDOU-3 M6 (C24)", "group": "beidou", "lat": 17.192587603755882, "lon": -4.568379999663937, "alt_km": 21533.861012272337, "timestamp": "2025-12-19T20:43:00.350897+00:00", "meta": {"OBJECT_NAME": "BEIDOU-3 M6 (C24)", "OBJECT_ID": "2018-062B", "EPOCH": "2025-12-19T02:09:37.044576", "MEAN_MOTION": 1.86229981, "ECCENTRICITY": 0.00078384, "INCLINATION": 54.0893, "RA_OF_ASC_NODE": 188.4162, "ARG_OF_PERICENTER": 47.7681, "MEAN_ANOMALY": 312.3611, "EPHEMERIS_TYPE": 0, "CLASSIFICATION_TYPE": "U", "NORAD_CAT_ID": 43582, "ELEMENT_SET_NO": 999, "REV_AT_EPOCH": 5028, "BSTAR": 0, "MEAN_MOTION_DOT": 1.04e-06, "MEAN_MOTION_DDOT": 0}, "tle": {"line1": "1 43582U 18062B   25353.09001209  .00000104  00000+0  00000+0 0  9991", "line2": "2 43582  54.0893 188.4162 0007838  47.7681 312.3611  1.86229981 50280"}}, "geometry": {"type": "Point", "coordinates": [-4.568379999663937, 17.192587603755882]}}, {"type": "Feature", "properties": {"norad_id": 43602, "name": "BEIDOU-3 M12 (C26)", "group": "beidou", "lat": -16.23121602238374, "lon": 19.26995637682588, "alt_km": 21554.71116000184, "timestamp": "2025-12-19T20:43:00.350909+00:00", "meta": {"OBJECT_NAME": "BEIDOU-3 M12 (C26)", "OBJECT_ID": "2018-067A", "EPOCH": "2025-12-17T22:53:45.555072", "MEAN_MOTION": 1.86227791, "ECCENTRICITY": 0.00092249, "INCLINATION": 54.1833, "RA_OF_ASC_NODE": 187.186, "ARG_OF_PERICENTER": 41.0055, "MEAN_ANOMALY": 319.1284, "EPHEMERIS_TYPE": 0, "CLASSIFICATION_TYPE": "U", "NORAD_CAT_ID": 43602, "ELEMENT_SET_NO": 999, "REV_AT_EPOCH": 4974, "BSTAR": 0, "MEAN_MOTION_DOT": 1.1e-06, "MEAN_MOTION_DDOT": 0}, "tle": {"line1": "1 43602U 18067A   25351.95399948  .00000110  00000+0  00000+0 0  9999", "line2": "2 43602  54.1833 187.1860 0009224  41.0055 319.1284  1.86227791 49749"}}, "geometry": {"type": "Point", "coordinates": [19.26995637682588, -16.23121602238374]}}, {"type": "Feature", "properties": {"norad_id": 43603, "name": "BEIDOU-3 M11 (C25)", "group": "beidou", "lat": 49.62632569940912, "lon": -51.11197132611728, "alt_km": 21517.959736787594, "timestamp": "2025-12-19T20:43:00.350921+00:00", "meta": {"OBJECT_NAME": "BEIDOU-3 M11 (C25)", "OBJECT_ID": "2018-067B", "EPOCH": "2025-12-18T02:07:28.250688", "MEAN_MOTION": 1.86227303, "ECCENTRICITY": 0.00056103, "INCLINATION": 54.1805, "RA_OF_ASC_NODE": 187.1455, "ARG_OF_PERICENTER": 36.7465, "MEAN_ANOMALY": 323.3559, "EPHEMERIS_TYPE": 0, "CLASSIFICATION_TYPE": "U", "NORAD_CAT_ID": 43603, "ELEMENT_SET_NO": 999, "REV_AT_EPOCH": 4977, "BSTAR": 0, "MEAN_MOTION_DOT": 1.09e-06, "MEAN_MOTION_DDOT": 0}, "tle": {"line1": "1 43603U 18067B   25352.08852142  .00000109  00000+0  00000+0 0  9993", "line2": "2 43603  54.1805 187.1455 0005610  36.7465 323.3559  1.86227303 49774"}}, "geometry": {"type": "Point", "coordinates": [-51.11197132611728, 49.62632569940912]}}]}